0 CZ-3B R/B
1 38253U 12018D   13282.05695982  .00085205 -45429-6  13505-2 0   272
2 38253 055.0286 142.8582 5145210 001.0757 359.7849 05.51359573 25327
0 CZ-3B R/B
1 38253U 12018D   13282.78230898  .00084594 -26256-6  13477-2 0   289
2 38253 055.0294 142.3076 5144335 001.3851 359.6957 05.51492597 25361
0 CZ-3B R/B
1 38253U 12018D   13283.87001876  .00072387  11392-6  11669-2 0   295
2 38253 055.0419 141.4772 5143365 001.8406 359.4332 05.51620567 25428
0 CZ-3B R/B
1 38253U 12018D   13283.87002217  .00084468  11405-6  13538-2 0   302
2 38253 055.0301 141.4816 5143220 001.8496 359.5635 05.51667294 25421
0 CZ-3B R/B
1 38253U 12018D   13285.31978092  .00080199  56696-6  12927-2 0   327
2 38253 055.0314 140.3805 5141806 002.4692 359.3915 05.51895164 25501
0 CZ-3B R/B
1 38253U 12018D   13285.68212663  .00080813  64084-6  13047-2 0   330
2 38253 055.0311 140.1046 5141412 002.6242 359.3493 05.51956344 25520
0 CZ-3B R/B
1 38253U 12018D   13285.86328463  .00080812  66969-6  13060-2 0   345
2 38253 055.0311 139.9669 5141235 002.7022 359.3281 05.51982530 25539
0 CZ-3B R/B
1 38253U 12018D   13286.22557498  .00078663  71017-6  12717-2 0   358
2 38253 055.0315 139.6917 5140905 002.8573 359.2862 05.52037900 25550
0 CZ-3B R/B
1 38253U 12018D   13286.76894119  .00079873  72675-6  12939-2 0   363
2 38253 055.0314 139.2783 5140342 003.0898 359.2237 05.52123317 25581
0 CZ-3B R/B
1 38253U 12018D   13287.31222112  .00081512  69172-6  13209-2 0   376
2 38253 055.0314 138.8652 5139843 003.3216 359.1615 05.52203293 25617
0 CZ-3B R/B
1 38253U 12018D   13287.67436455  .00086883  64239-6  14083-2 0   389
2 38253 055.0313 138.5892 5139442 003.4771 359.1197 05.52266406 25633
0 CZ-3B R/B
1 38253U 12018D   13289.48445830  .00087871  19396-6  14232-2 0   396
2 38253 055.0322 137.2118 5137577 004.2529 358.9084 05.52568636 25730
0 CZ-3B R/B
1 38253U 12018D   13290.02729688  .00085089  37300-7  13795-2 0   404
2 38253 055.0322 136.7985 5136979 004.4861 358.8435 05.52660627 25767
0 CZ-3B R/B
1 38253U 12018D   13290.57001998  .00077185  00000-0  11592-2 0   424
2 38253 055.0534 136.3886 5138001 004.6767 358.8098 05.52798441 25797
0 CZ-3B R/B
1 38253U 12018D   13290.57004886  .00086115 -10895-6  13946-2 0   410
2 38253 055.0332 136.3858 5136488 004.7188 358.7779 05.52743659 25793
0 CZ-3B R/B
1 38253U 12018D   13290.75094687  .00080291 -15384-6  13039-2 0   429
2 38253 055.0334 136.2477 5136217 004.7959 358.7560 05.52776151 25800
0 CZ-3B R/B
1 38253U 12018D   13291.65528899  .00083473 -33626-6  13558-2 0   437
2 38253 055.0343 135.5593 5135328 005.1833 358.6448 05.52920677 25852
0 CZ-3B R/B
1 38253U 12018D   13292.01696087  .00080804 -38644-6  13127-2 0   446
2 38253 055.0344 135.2838 5134984 005.3387 358.5997 05.52976276 25871
0 CZ-3B R/B
1 38253U 12018D   13292.74019568  .00082171 -44339-6  13361-2 0   457
2 38253 055.0355 134.7329 5134286 005.6487 358.5092 05.53089637 25919
0 CZ-3B R/B
1 38253U 12018D   13293.82477027  .00081322 -42204-6  13256-2 0   465
2 38253 055.0360 133.9061 5133296 006.1138 358.3725 05.53248373 25979
0 CZ-3B R/B
1 38253U 12018D   13294.72834046  .00086530 -31908-6  14112-2 0   471
2 38253 055.0369 133.2174 5132472 006.5013 358.2587 05.53390154 26024
0 CZ-3B R/B
1 38253U 12018D   13294.90902394  .00083740 -29099-6  13673-2 0   483
2 38253 055.0367 133.0787 5132274 006.5788 358.2359 05.53419508 26032
0 CZ-3B R/B
1 38253U 12018D   13295.81231672  .00086648 -12254-6  14147-2 0   491
2 38253 055.0360 132.3887 5131470 006.9659 358.1231 05.53561329 26088
